STARLINK-5705           
1 55472U 23015Z   26176.39946395  .00000533  00000+0  28879-4 0  9992
2 55472  43.0027  73.5009 0001299 259.4285 100.6420 15.27578651187276
STARLINK-30450          
1 57913U 23147A   26176.72328344  .00002851  00000+0  11301-3 0  9991
2 57913  43.0024  74.8148 0001140 252.8438 107.2288 15.27599467153125
STARLINK-32902          
1 62898U 25024V   26176.98996317  .00019230  00000+0  70620-3 0  9992
2 62898  43.0011  73.3379 0001591 254.9086 105.1590 15.27594428 78830
STARLINK-36491          
1 67310U 26002F   26176.75671774  .00008873  00000+0  33156-3 0  9999
2 67310  42.9982  75.2041 0001013 259.7560 100.3178 15.27579257 27606
STARLINK-36463          
1 67315U 26002L   26176.72202617  .00026680  00000+0  97501-3 0  9997
2 67315  43.0017  74.9305 0001383 268.3532  91.7162 15.27597550 27664
STARLINK-36471          
1 67324U 26002V   26176.98742207  .00023092  00000+0  84537-3 0  9998
2 67324  43.0034  73.4822 0003379 155.2514 204.8500 15.27603641 27642
