{
  "schema": "int-temerity-real-tle-snapshot/v1",
  "source": "celestrak",
  "group": "STARLINK",
  "format": "celestrak-gp-json",
  "source_url": "https://celestrak.org/NORAD/elements/gp.php?NAME=STARLINK&FORMAT=JSON",
  "downloaded_at": "2026-06-26T09:52:00.103Z",
  "generated_at": "2026-06-26T09:52:00.244Z",
  "fingerprint": "ba85ff7c",
  "shell_id": "starlink-real-43deg-490km",
  "catalog_count": 10658,
  "shell_count": 3264,
  "selected_count": 64,
  "mean_altitude_km": 490.15,
  "mean_inclination_deg": 43.002,
  "mean_mean_motion_rev_per_day": 15.27590899,
  "layout": {
    "planes": 8,
    "satellites_per_plane": 8,
    "selection_strategy": "largest-shell-raan-clusters-even-slot-sampling",
    "raan_cluster_threshold_deg": 1.5
  },
  "satellites": [
    {
      "satellite_id": "P03-S03",
      "norad_id": 62898,
      "satellite_name": "STARLINK-32902",
      "cospar_id": "2025-024V",
      "shell_id": "starlink-real-43deg-490km",
      "plane_id": 2,
      "slot_id": 2,
      "epoch": "2026-06-25T23:45:32.817888",
      "inclination": 43.0011,
      "raan": 73.33789999999999,
      "eccentricity": 0.0001591,
      "argument_of_perigee": 254.90859999999998,
      "mean_anomaly": 105.15899999999999,
      "mean_motion": 15.27594428,
      "bstar": 0.0007062,
      "status": "active",
      "raw_omm": {
        "OBJECT_NAME": "STARLINK-32902",
        "OBJECT_ID": "2025-024V",
        "EPOCH": "2026-06-25T23:45:32.817888",
        "MEAN_MOTION": 15.27594428,
        "ECCENTRICITY": 0.0001591,
        "INCLINATION": 43.0011,
        "RA_OF_ASC_NODE": 73.3379,
        "ARG_OF_PERICENTER": 254.9086,
        "MEAN_ANOMALY": 105.159,
        "EPHEMERIS_TYPE": 0,
        "CLASSIFICATION_TYPE": "U",
        "NORAD_CAT_ID": 62898,
        "ELEMENT_SET_NO": 999,
        "REV_AT_EPOCH": 7883,
        "BSTAR": 0.0007062,
        "MEAN_MOTION_DOT": 0.0001923,
        "MEAN_MOTION_DDOT": 0
      },
      "source": "celestrak",
      "source_url": "https://celestrak.org/NORAD/elements/gp.php?NAME=STARLINK&FORMAT=JSON",
      "catalog_fingerprint": "ba85ff7c"
    },
    {
      "satellite_id": "P03-S04",
      "norad_id": 67315,
      "satellite_name": "STARLINK-36463",
      "cospar_id": "2026-002L",
      "shell_id": "starlink-real-43deg-490km",
      "plane_id": 2,
      "slot_id": 3,
      "epoch": "2026-06-25T17:19:43.061088",
      "inclination": 43.0017,
      "raan": 74.9305,
      "eccentricity": 0.0001383,
      "argument_of_perigee": 268.3532,
      "mean_anomaly": 91.71620000000001,
      "mean_motion": 15.2759755,
      "bstar": 0.00097501,
      "status": "active",
      "raw_omm": {
        "OBJECT_NAME": "STARLINK-36463",
        "OBJECT_ID": "2026-002L",
        "EPOCH": "2026-06-25T17:19:43.061088",
        "MEAN_MOTION": 15.2759755,
        "ECCENTRICITY": 0.0001383,
        "INCLINATION": 43.0017,
        "RA_OF_ASC_NODE": 74.9305,
        "ARG_OF_PERICENTER": 268.3532,
        "MEAN_ANOMALY": 91.7162,
        "EPHEMERIS_TYPE": 0,
        "CLASSIFICATION_TYPE": "U",
        "NORAD_CAT_ID": 67315,
        "ELEMENT_SET_NO": 999,
        "REV_AT_EPOCH": 2766,
        "BSTAR": 0.00097501,
        "MEAN_MOTION_DOT": 0.0002668,
        "MEAN_MOTION_DDOT": 0
      },
      "source": "celestrak",
      "source_url": "https://celestrak.org/NORAD/elements/gp.php?NAME=STARLINK&FORMAT=JSON",
      "catalog_fingerprint": "ba85ff7c"
    },
    {
      "satellite_id": "P03-S05",
      "norad_id": 55472,
      "satellite_name": "STARLINK-5705",
      "cospar_id": "2023-015Z",
      "shell_id": "starlink-real-43deg-490km",
      "plane_id": 2,
      "slot_id": 4,
      "epoch": "2026-06-25T09:35:13.685280",
      "inclination": 43.0027,
      "raan": 73.5009,
      "eccentricity": 0.0001299,
      "argument_of_perigee": 259.4285,
      "mean_anomaly": 100.642,
      "mean_motion": 15.27578651,
      "bstar": 0.000028879,
      "status": "active",
      "raw_omm": {
        "OBJECT_NAME": "STARLINK-5705",
        "OBJECT_ID": "2023-015Z",
        "EPOCH": "2026-06-25T09:35:13.685280",
        "MEAN_MOTION": 15.27578651,
        "ECCENTRICITY": 0.0001299,
        "INCLINATION": 43.0027,
        "RA_OF_ASC_NODE": 73.5009,
        "ARG_OF_PERICENTER": 259.4285,
        "MEAN_ANOMALY": 100.642,
        "EPHEMERIS_TYPE": 0,
        "CLASSIFICATION_TYPE": "U",
        "NORAD_CAT_ID": 55472,
        "ELEMENT_SET_NO": 999,
        "REV_AT_EPOCH": 18727,
        "BSTAR": 0.000028879,
        "MEAN_MOTION_DOT": 0.00000533,
        "MEAN_MOTION_DDOT": 0
      },
      "source": "celestrak",
      "source_url": "https://celestrak.org/NORAD/elements/gp.php?NAME=STARLINK&FORMAT=JSON",
      "catalog_fingerprint": "ba85ff7c"
    },
    {
      "satellite_id": "P03-S06",
      "norad_id": 57913,
      "satellite_name": "STARLINK-30450",
      "cospar_id": "2023-147A",
      "shell_id": "starlink-real-43deg-490km",
      "plane_id": 2,
      "slot_id": 5,
      "epoch": "2026-06-25T17:21:31.689216",
      "inclination": 43.0024,
      "raan": 74.81479999999999,
      "eccentricity": 0.000114,
      "argument_of_perigee": 252.8438,
      "mean_anomaly": 107.22879999999998,
      "mean_motion": 15.27599467,
      "bstar": 0.00011301,
      "status": "active",
      "raw_omm": {
        "OBJECT_NAME": "STARLINK-30450",
        "OBJECT_ID": "2023-147A",
        "EPOCH": "2026-06-25T17:21:31.689216",
        "MEAN_MOTION": 15.27599467,
        "ECCENTRICITY": 0.000114,
        "INCLINATION": 43.0024,
        "RA_OF_ASC_NODE": 74.8148,
        "ARG_OF_PERICENTER": 252.8438,
        "MEAN_ANOMALY": 107.2288,
        "EPHEMERIS_TYPE": 0,
        "CLASSIFICATION_TYPE": "U",
        "NORAD_CAT_ID": 57913,
        "ELEMENT_SET_NO": 999,
        "REV_AT_EPOCH": 15312,
        "BSTAR": 0.00011301,
        "MEAN_MOTION_DOT": 0.00002851,
        "MEAN_MOTION_DDOT": 0
      },
      "source": "celestrak",
      "source_url": "https://celestrak.org/NORAD/elements/gp.php?NAME=STARLINK&FORMAT=JSON",
      "catalog_fingerprint": "ba85ff7c"
    },
    {
      "satellite_id": "P03-S07",
      "norad_id": 67310,
      "satellite_name": "STARLINK-36491",
      "cospar_id": "2026-002F",
      "shell_id": "starlink-real-43deg-490km",
      "plane_id": 2,
      "slot_id": 6,
      "epoch": "2026-06-25T18:09:40.412736",
      "inclination": 42.9982,
      "raan": 75.20409999999998,
      "eccentricity": 0.0001013,
      "argument_of_perigee": 259.756,
      "mean_anomaly": 100.31780000000003,
      "mean_motion": 15.27579257,
      "bstar": 0.00033156,
      "status": "active",
      "raw_omm": {
        "OBJECT_NAME": "STARLINK-36491",
        "OBJECT_ID": "2026-002F",
        "EPOCH": "2026-06-25T18:09:40.412736",
        "MEAN_MOTION": 15.27579257,
        "ECCENTRICITY": 0.0001013,
        "INCLINATION": 42.9982,
        "RA_OF_ASC_NODE": 75.2041,
        "ARG_OF_PERICENTER": 259.756,
        "MEAN_ANOMALY": 100.3178,
        "EPHEMERIS_TYPE": 0,
        "CLASSIFICATION_TYPE": "U",
        "NORAD_CAT_ID": 67310,
        "ELEMENT_SET_NO": 999,
        "REV_AT_EPOCH": 2760,
        "BSTAR": 0.00033156,
        "MEAN_MOTION_DOT": 0.00008873,
        "MEAN_MOTION_DDOT": 0
      },
      "source": "celestrak",
      "source_url": "https://celestrak.org/NORAD/elements/gp.php?NAME=STARLINK&FORMAT=JSON",
      "catalog_fingerprint": "ba85ff7c"
    },
    {
      "satellite_id": "P03-S08",
      "norad_id": 67324,
      "satellite_name": "STARLINK-36471",
      "cospar_id": "2026-002V",
      "shell_id": "starlink-real-43deg-490km",
      "plane_id": 2,
      "slot_id": 7,
      "epoch": "2026-06-25T23:41:53.266848",
      "inclination": 43.0034,
      "raan": 73.48220000000003,
      "eccentricity": 0.0003379,
      "argument_of_perigee": 155.2514,
      "mean_anomaly": 204.85000000000002,
      "mean_motion": 15.27603641,
      "bstar": 0.00084537,
      "status": "active",
      "raw_omm": {
        "OBJECT_NAME": "STARLINK-36471",
        "OBJECT_ID": "2026-002V",
        "EPOCH": "2026-06-25T23:41:53.266848",
        "MEAN_MOTION": 15.27603641,
        "ECCENTRICITY": 0.0003379,
        "INCLINATION": 43.0034,
        "RA_OF_ASC_NODE": 73.4822,
        "ARG_OF_PERICENTER": 155.2514,
        "MEAN_ANOMALY": 204.85,
        "EPHEMERIS_TYPE": 0,
        "CLASSIFICATION_TYPE": "U",
        "NORAD_CAT_ID": 67324,
        "ELEMENT_SET_NO": 999,
        "REV_AT_EPOCH": 2764,
        "BSTAR": 0.00084537,
        "MEAN_MOTION_DOT": 0.00023092,
        "MEAN_MOTION_DDOT": 0
      },
      "source": "celestrak",
      "source_url": "https://celestrak.org/NORAD/elements/gp.php?NAME=STARLINK&FORMAT=JSON",
      "catalog_fingerprint": "ba85ff7c"
    }
  ]
}